OBJECT_NAME,OBJECT_ID,EPOCH,MEAN_MOTION,ECCENTRICITY,INCLINATION,RA_OF_ASC_NODE,ARG_OF_PERICENTER,MEAN_ANOMALY,EPHEMERIS_TYPE,CLASSIFICATION_TYPE,NORAD_CAT_ID,ELEMENT_SET_NO,REV_AT_EPOCH,BSTAR,MEAN_MOTION_DOT,MEAN_MOTION_DDOT
LEMUR-1,2014-033AL,2026-07-19T16:44:37.466304,14.85343875,.0047378,97.7915,349.7893,332.9845,26.8905,0,U,40044,999,65029,.82651E-4,.669E-5,0
LEMUR-2-GREENBERG,2017-042N,2026-07-19T11:42:32.122656,15.32233564,.00074313,97.3839,20.9886,241.5042,118.5452,0,U,42837,999,49333,.28369999E-3,.8759E-4,0
LEMUR-2-ANDIS,2017-042P,2026-07-19T10:33:46.266912,15.36030642,.00074134,97.3691,21.2418,240.5981,119.4524,0,U,42838,999,49340,.33770018E-3,.11782E-3,0
LEMUR-2-MONSON,2017-042Q,2026-07-19T18:20:00.606624,15.28825454,.0005603,97.4102,21.1846,226.0215,134.0563,0,U,42839,999,49314,.28045E-3,.7784E-4,0
LEMUR-2-FURIAUS,2017-042R,2026-07-19T10:31:09.583104,15.31212862,.00057234,97.3788,18.8215,311.1861,48.8887,0,U,42840,999,49314,.31005454E-3,.9277E-4,0
LEMUR-2-PETERG,2017-042S,2026-07-19T10:38:36.824928,15.35124199,.00036319,97.4004,25.5577,202.2189,157.8897,0,U,42841,999,49338,.31942597E-3,.10813E-3,0
LEMUR-2-DEMBITZ,2017-042T,2026-07-19T18:50:12.824160,15.31193718,.0005174,97.3839,22.2135,252.9643,107.1031,0,U,42842,999,49333,.30962E-3,.9257E-4,0
LEMUR-2-ZACHARY,2017-042W,2026-07-19T19:41:55.525056,15.53002308,.0002901,97.3580,33.2166,223.8802,136.2221,0,U,42845,999,49426,.51576E-3,.3215E-3,0
LEMUR-2-AMANDA-SVANTE,2021-034B,2026-07-19T18:00:24.972192,15.36130619,.0004806,97.5740,279.9385,133.4502,226.7142,0,U,48269,999,28605,.51134E-3,.17942E-3,0
LEMUR-2-SPECIAL-K,2021-034F,2026-07-19T18:42:14.279616,15.76367989,.0006263,97.5623,290.2833,210.6848,149.4051,0,U,48273,999,28680,.11782E-2,.189173E-2,0
LEMUR-2-EMBRIONOVIS,2023-084AQ,2026-07-19T08:14:13.210944,15.38295857,.00086712,97.6331,345.8022,191.0814,169.0241,0,U,56970,999,17262,.20526416E-3,.7667E-4,0
LEMUR-2-DEVERILL-M-T,2023-100F,2026-07-19T13:56:29.050656,15.41222703,.0004771,99.4445,248.7356,278.7246,81.3454,0,U,57391,999,16623,.34188E-3,.14094E-3,0
LEMUR-2-BASS,2023-174D,2026-07-19T18:03:16.659360,15.44086347,.0007365,97.3837,285.9427,64.5844,295.6166,0,U,58259,999,15038,.21302E-3,.9657E-4,0
LEMUR-2-JK0903EM1407,2023-174CJ,2026-07-19T19:43:55.386048,15.53221514,.0003114,97.3916,292.2502,14.6736,345.4607,0,U,58336,999,15079,.25655E-3,.16037E-3,0
LEMUR-2-MJR092620,2023-174CN,2026-07-19T19:00:00.759744,15.45964734,.0004856,97.3967,291.4475,13.2773,346.8603,0,U,58340,999,15068,.23424E-3,.11328E-3,0
LEMUR-2-NIMBUS2000,2024-022A,2026-07-19T11:43:54.314976,15.41225793,.00083005,97.4081,50.9197,13.8440,346.3033,0,U,58899,999,13724,.29171467E-3,.1205E-3,0
LEMUR-2-VALHALLA,2024-022B,2026-07-19T21:14:40.700256,15.40573549,.0008726,97.4081,51.2869,7.8665,352.2717,0,U,58900,999,13730,.21926E-3,.884E-4,0
LEMUR-2-CAEL,2024-022E,2026-07-19T08:20:21.126336,15.41938041,.00066659,97.4060,51.7363,354.0113,6.1053,0,U,58903,999,13729,.22210846E-3,.9367E-4,0
LEMUR-2-JOHNNYTRUONG,2024-043BA,2026-07-19T09:07:27.352416,15.62784650,.00038268,97.5404,354.1407,81.8636,278.3056,0,U,59146,999,13306,.27854272E-3,.24963E-3,0
LEMUR-2-TOMATOKECHUP,2024-149D,2026-07-19T19:16:34.763232,15.36638110,.0003431,97.3786,282.9462,113.5159,246.6446,0,U,60471,999,10717,.16762E-3,.5915E-4,0
LEMUR-2-STELLA,2024-149BT,2026-07-19T18:30:34.875072,15.12424995,.0001286,97.6728,283.3824,123.0610,237.0744,0,U,60533,999,10542,.34273E-3,.5888E-4,0
LEMUR-2-MARHISYAM,2024-149BW,2026-07-19T18:20:04.983648,15.11826829,.0002256,97.6872,283.8566,62.3623,297.7836,0,U,60536,999,10540,.29176E-3,.4919E-4,0
LEMUR-2-AHMED-ASRAR,2024-149DN,2026-07-19T18:22:47.782848,15.13363648,.0001624,97.6999,286.0796,184.9138,175.2077,0,U,60576,999,10549,.32372E-3,.5706E-4,0
LEMUR-2-LLOYD,2024-149DP,2026-07-19T18:54:43.396992,15.09795102,.0004272,97.6730,281.9461,59.7041,300.4610,0,U,60577,999,10531,.32809E-3,.5237E-4,0
LEMUR-2-SQUIRRELCOMM,2024-149DQ,2026-07-19T15:37:18.134112,15.07469828,.0004005,97.6699,281.4656,305.2280,54.8572,0,U,60578,999,10529,.2008E-3,.2982E-4,0
LEMUR-2-SIERRINI,2024-149DR,2026-07-19T19:02:49.816032,15.11564081,.00061,97.6829,283.5430,79.2614,280.9302,0,U,60579,999,10538,.34803E-3,.584E-4,0
LEMUR-2-WILSON,2025-009CP,2026-07-19T18:03:19.666944,14.95285188,.0001658,97.7016,278.6460,297.4630,62.6423,0,U,62694,999,8222,.10444E-3,.1093E-4,0
LEMUR-2-STAR-FOX,2025-009CR,2026-07-19T17:18:12.683232,15.02874020,.0001696,97.6897,282.0957,24.4402,335.6903,0,U,62696,999,8244,.28736E-3,.3793E-4,0
LEMUR-2-ARIANNA,2025-009CU,2026-07-19T04:28:58.984320,15.02872906,.00020741,97.6840,281.3147,35.4388,324.6975,0,U,62699,999,8236,.29063805E-3,.3837E-4,0
LEMUR-2-ALISIA,2025-009DB,2026-07-19T18:10:36.814656,15.03212012,.0004828,97.6961,282.7148,116.7593,243.4126,0,U,62706,999,10505,.28005E-3,.3729E-4,0
